[{"OBJECT_NAME":"ONEWEB-0420","OBJECT_ID":"2021-132AC","EPOCH":"2026-03-09T20:23:35.431296","MEAN_MOTION":13.18699386,"ECCENTRICITY":0.00019303,"INCLINATION":87.9247,"RA_OF_ASC_NODE":355.1939,"ARG_OF_PERICENTER":82.0546,"MEAN_ANOMALY":278.0805,"EPHEMERIS_TYPE":0,"CLASSIFICATION_TYPE":"U","NORAD_CAT_ID":50495,"ELEMENT_SET_NO":999,"REV_AT_EPOCH":20848,"BSTAR":-0.0062178635,"MEAN_MOTION_DOT":-2.438e-5,"MEAN_MOTION_DDOT":0},{"OBJECT_NAME":"FENGYUN 1C DEB","OBJECT_ID":"1999-025EZT","EPOCH":"2026-03-09T13:00:39.279456","MEAN_MOTION":13.69262259,"ECCENTRICITY":0.02635874,"INCLINATION":98.7251,"RA_OF_ASC_NODE":183.9217,"ARG_OF_PERICENTER":69.7913,"MEAN_ANOMALY":350.124,"EPHEMERIS_TYPE":0,"CLASSIFICATION_TYPE":"U","NORAD_CAT_ID":46993,"ELEMENT_SET_NO":999,"REV_AT_EPOCH":61445,"BSTAR":0.00039758472,"MEAN_MOTION_DOT":4.04e-6,"MEAN_MOTION_DDOT":0}]
